OBJECT_NAME,OBJECT_ID,EPOCH,MEAN_MOTION,ECCENTRICITY,INCLINATION,RA_OF_ASC_NODE,ARG_OF_PERICENTER,MEAN_ANOMALY,EPHEMERIS_TYPE,CLASSIFICATION_TYPE,NORAD_CAT_ID,ELEMENT_SET_NO,REV_AT_EPOCH,BSTAR,MEAN_MOTION_DOT,MEAN_MOTION_DDOT
HODOYOSHI-4,2014-033B,2026-07-11T12:13:01.094880,14.88181440,.0022445,97.5460,16.1594,222.5405,137.4074,0,U,40011,999,65242,.37344E-4,.293E-5,0
DEIMOS-2,2014-033D,2026-07-11T13:35:33.859104,14.93789086,.000095,97.5806,66.1958,86.2146,273.9183,0,U,40013,999,64136,.15419E-4,.109E-5,0
HODOYOSHI-3,2014-033F,2026-07-10T10:12:14.872032,14.85431636,.00313125,97.6440,353.5338,278.3892,81.3774,0,U,40015,999,65107,.75972489E-4,.607E-5,0
SPOT 7,2014-034A,2026-07-11T11:52:48.824256,14.60980252,.0001555,98.0621,254.3591,96.1089,264.0289,0,U,40053,999,64068,.12685E-3,.576E-5,0
SKYSAT-B,2014-037D,2026-07-11T11:12:19.630368,14.88086660,.0005283,98.3852,152.8187,184.6528,175.4638,0,U,40072,999,64957,.80784E-4,.681E-5,0
WORLDVIEW-3 (WV-3),2014-048A,2026-07-11T11:47:32.182080,14.85060701,.0001016,97.8558,266.9880,160.8266,199.2987,0,U,40115,999,64551,.52974E-4,.399E-5,0
GAOFEN-2,2014-049A,2026-07-11T12:00:43.106688,14.80925752,.0008021,98.0102,256.6836,145.0443,215.1297,0,U,40118,999,64283,.53607E-4,.361E-5,0
YAOGAN-21,2014-053A,2026-07-11T13:07:39.497088,15.26731470,.0008227,97.1470,231.7405,21.2284,338.9295,0,U,40143,999,65867,.2346E-3,.6102E-4,0
YAOGAN-22,2014-063A,2026-07-11T08:52:41.066400,13.15531581,.0006802,100.7756,344.0478,133.2220,226.9460,0,U,40275,999,56299,.78797E-4,-.17E-6,0
ASNARO,2014-070A,2026-07-11T12:33:21.405024,15.19796926,.0006954,97.3453,267.9831,98.7347,261.4676,0,U,40298,999,64770,.23205E-3,.4904E-4,0
YAOGAN-24,2014-072A,2026-07-11T13:15:31.580640,14.76117290,.0014322,98.1513,330.0980,181.1173,179.0006,0,U,40310,999,62731,.13326E-3,.868E-5,0
CBERS 4,2014-079A,2026-07-11T12:03:39.303072,14.35515955,.0000955,98.3524,248.5699,50.5454,309.5816,0,U,40336,999,60744,.8676E-4,.207E-5,0
YAOGAN-26,2014-088A,2026-07-11T10:35:44.297088,15.48347529,.0002519,97.0648,192.0980,1.0564,359.0692,0,U,40362,999,64145,.3735E-3,.19691E-3,0
SMAP,2015-003A,2026-07-11T11:45:42.450624,14.63387247,.0001574,98.1282,199.2409,95.6844,264.4537,0,U,40376,999,61117,.5337E-4,.229E-5,0
KOMPSAT-3A,2015-014A,2026-07-11T12:11:54.584160,15.55270661,.0056567,97.6888,185.6712,88.6024,272.1708,0,U,40536,999,62559,.28053E-3,.20312E-3,0
SENTINEL-2A,2015-028A,2026-07-11T11:31:48.459072,14.30814251,.000127,98.5679,266.9865,94.3913,265.7415,0,U,40697,999,57720,.10111E-3,.221E-5,0
GAOFEN-8,2015-030A,2026-07-11T13:08:30.903360,15.46856538,.0010003,97.6902,27.3954,107.4283,252.8060,0,U,40701,999,61521,.31844E-3,.1594E-3,0
CARBONITE 1 (CBNT-1),2015-032D,2026-07-11T12:42:54.993024,14.83663334,.0013546,97.6521,9.5796,209.5542,150.4908,0,U,40718,999,59295,.18786E-3,.1502E-4,0
YAOGAN-27,2015-040A,2026-07-11T12:10:26.937408,13.16070217,.0008419,100.1164,177.8355,153.2957,206.8591,0,U,40878,999,52086,-.91433E-3,-.39E-5,0
GAOFEN-9 01,2015-047A,2026-07-11T11:44:19.832352,14.82930802,.0028652,97.6271,227.0787,62.1022,298.3089,0,U,40894,999,58379,.77508E-4,.582E-5,0
YAOGAN-28,2015-064A,2026-07-11T13:26:05.373888,15.27729996,.0012055,97.3097,330.3335,104.2420,256.0159,0,U,41026,999,59440,.15001E-3,.3998E-4,0
YAOGAN-29,2015-069A,2026-07-11T12:48:25.328736,14.83105460,.0001073,98.0028,221.2039,18.4348,341.6904,0,U,41038,999,57423,.31776E-4,.205E-5,0
KENT RIDGE 1,2015-077B,2026-07-09T22:50:07.872864,15.23266301,.00082275,14.9795,96.6661,201.1244,158.8739,0,U,41167,999,58457,.90645004E-4,.2977E-4,0
GAOFEN-4,2015-083A,2026-07-11T12:20:56.197248,1.00268776,.0004449,0.4165,83.8630,120.9481,15.5281,0,U,41194,999,3877,0,-.329E-5,0
JASON-3,2016-002A,2026-07-11T11:15:02.744928,12.87628448,.0008219,66.0417,74.7871,271.2635,88.7443,0,U,41240,999,49037,.72287E-4,-.44E-6,0
SENTINEL-3A,2016-011A,2026-07-11T11:33:21.589632,14.26739112,.0001389,98.6239,259.5149,91.2410,268.8929,0,U,41335,999,54152,.34705E-4,.4E-6,0
ZIYUAN 3-02 (ZY 3-02),2016-033A,2026-07-11T12:38:08.487168,15.21411807,.001369,97.3831,267.8325,197.9371,162.1384,0,U,41556,999,56168,.14348E-3,.3158E-4,0
CARTOSAT-2C,2016-040A,2026-07-11T11:54:37.827360,15.19250101,.0009837,97.4482,252.1382,56.3922,303.8250,0,U,41599,999,55740,.17564E-3,.3637E-4,0
SKYSAT-C1,2016-040C,2026-07-11T01:15:19.214208,15.36701959,.0000717,96.9558,222.4825,359.4665,0.6579,0,U,41601,999,56153,.15359E-3,.5431E-4,0
LAPAN-A3,2016-040E,2026-07-11T12:51:00.391680,15.33263583,.0008293,97.1497,187.8845,292.1500,67.8863,0,U,41603,999,55854,.68376E-4,.2124E-4,0
GAOFEN-3,2016-049A,2026-07-11T12:07:13.397952,14.42218833,.0001792,98.4019,199.9238,87.8028,272.3366,0,U,41727,999,52215,.44358E-4,.103E-5,0
