HODOYOSHI-4             
1 40011U 14033B   26192.50904045  .00000293  00000+0  37344-4 0  9992
2 40011  97.5460  16.1594 0022445 222.5405 137.4074 14.88181440652426
DEIMOS-2                
1 40013U 14033D   26192.56636411  .00000109  00000+0  15419-4 0  9994
2 40013  97.5806  66.1958 0000950  86.2146 273.9183 14.93789086641369
HODOYOSHI-3             
1 40015U 14033F   26191.42517213  .00000607  00000+0  75972-4 0  9991
2 40015  97.6440 353.5338 0031312 278.3892  81.3774 14.85431636651071
SPOT 7                  
1 40053U 14034A   26192.49500954  .00000576  00000+0  12685-3 0  9992
2 40053  98.0621 254.3591 0001555  96.1089 264.0289 14.60980252640680
SKYSAT-B                
1 40072U 14037D   26192.46689387  .00000681  00000+0  80784-4 0  9994
2 40072  98.3852 152.8187 0005283 184.6528 175.4638 14.88086660649576
WORLDVIEW-3 (WV-3)      
1 40115U 14048A   26192.49134470  .00000399  00000+0  52974-4 0  9991
2 40115  97.8558 266.9880 0001016 160.8266 199.2987 14.85060701645519
GAOFEN-2                
1 40118U 14049A   26192.50049892  .00000361  00000+0  53607-4 0  9993
2 40118  98.0102 256.6836 0008021 145.0443 215.1297 14.80925752642837
YAOGAN-21               
1 40143U 14053A   26192.54698492  .00006102  00000+0  23460-3 0  9998
2 40143  97.1470 231.7405 0008227  21.2284 338.9295 15.26731470658679
YAOGAN-22               
1 40275U 14063A   26192.36991975 -.00000017  00000+0  78797-4 0  9991
2 40275 100.7756 344.0478 0006802 133.2220 226.9460 13.15531581562998
ASNARO                  
1 40298U 14070A   26192.52316441  .00004904  00000+0  23205-3 0  9992
2 40298  97.3453 267.9831 0006954  98.7347 261.4676 15.19796926647705
YAOGAN-24               
1 40310U 14072A   26192.55244885  .00000868  00000+0  13326-3 0  9992
2 40310  98.1513 330.0980 0014322 181.1173 179.0006 14.76117290627314
CBERS 4                 
1 40336U 14079A   26192.50253823  .00000207  00000+0  86760-4 0  9994
2 40336  98.3524 248.5699 0000955  50.5454 309.5816 14.35515955607440
YAOGAN-26               
1 40362U 14088A   26192.44148492  .00019691  00000+0  37350-3 0  9998
2 40362  97.0648 192.0980 0002519   1.0564 359.0692 15.48347529641455
SMAP                    
1 40376U 15003A   26192.49007466  .00000229  00000+0  53370-4 0  9999
2 40376  98.1282 199.2409 0001574  95.6844 264.4537 14.63387247611171
KOMPSAT-3A              
1 40536U 15014A   26192.50827065  .00020312  00000+0  28053-3 0  9990
2 40536  97.6888 185.6712 0056567  88.6024 272.1708 15.55270661625595
SENTINEL-2A             
1 40697U 15028A   26192.48042198  .00000221  00000+0  10111-3 0  9999
2 40697  98.5679 266.9865 0001270  94.3913 265.7415 14.30814251577203
GAOFEN-8                
1 40701U 15030A   26192.54757990  .00015940  00000+0  31844-3 0  9998
2 40701  97.6902  27.3954 0010003 107.4283 252.8060 15.46856538615215
CARBONITE 1 (CBNT-1)    
1 40718U 15032D   26192.52980316  .00001502  00000+0  18786-3 0  9995
2 40718  97.6521   9.5796 0013546 209.5542 150.4908 14.83663334592952
YAOGAN-27               
1 40878U 15040A   26192.50725622 -.00000390  00000+0 -91433-3 0  9992
2 40878 100.1164 177.8355 0008419 153.2957 206.8591 13.16070217520862
GAOFEN-9 01             
1 40894U 15047A   26192.48911843  .00000582  00000+0  77508-4 0  9995
2 40894  97.6271 227.0787 0028652  62.1022 298.3089 14.82930802583796
YAOGAN-28               
1 41026U 15064A   26192.55978442  .00003998  00000+0  15001-3 0  9991
2 41026  97.3097 330.3335 0012055 104.2420 256.0159 15.27729996594403
YAOGAN-29               
1 41038U 15069A   26192.53362649  .00000205  00000+0  31776-4 0  9999
2 41038  98.0028 221.2039 0001073  18.4348 341.6904 14.83105460574233
KENT RIDGE 1            
1 41167U 15077B   26190.95148001  .00002977  00000+0  90645-4 0  9997
2 41167  14.9795  96.6661 0008227 201.1244 158.8739 15.23266301584572
GAOFEN-4                
1 41194U 15083A   26192.51453932 -.00000329  00000+0  00000+0 0  9991
2 41194   0.4165  83.8630 0004449 120.9481  15.5281  1.00268776 38775
JASON-3                 
1 41240U 16002A   26192.46878177 -.00000044  00000+0  72287-4 0  9996
2 41240  66.0417  74.7871 0008219 271.2635  88.7443 12.87628448490374
SENTINEL-3A             
1 41335U 16011A   26192.48149988  .00000040  00000+0  34705-4 0  9992
2 41335  98.6239 259.5149 0001389  91.2410 268.8929 14.26739112541525
ZIYUAN 3-02 (ZY 3-02)   
1 41556U 16033A   26192.52648712  .00003158  00000+0  14348-3 0  9998
2 41556  97.3831 267.8325 0013690 197.9371 162.1384 15.21411807561684
CARTOSAT-2C             
1 41599U 16040A   26192.49627115  .00003637  00000+0  17564-3 0  9998
2 41599  97.4482 252.1382 0009837  56.3922 303.8250 15.19250101557408
SKYSAT-C1               
1 41601U 16040C   26192.05230572  .00005431  00000+0  15359-3 0  9995
2 41601  96.9558 222.4825 0000717 359.4665   0.6579 15.36701959561537
LAPAN-A3                
1 41603U 16040E   26192.53542120  .00002124  00000+0  68376-4 0  9999
2 41603  97.1497 187.8845 0008293 292.1500  67.8863 15.33263583558549
GAOFEN-3                
1 41727U 16049A   26192.50501618  .00000103  00000+0  44358-4 0  9998
2 41727  98.4019 199.9238 0001792  87.8028 272.3366 14.42218833522157
